{"finda":"city","searchString":"01","count":219,"header":{"0":{"col":"plz","label":"PLZ","sortable":true},"1":{"col":"city","label":"Ortsname","sortable":true},"2":{"col":"cityaddition","label":"Ortszusatz","sortable":true},"3":{"col":"districtlink","label":"","sortable":false},"4":{"col":"streetlink","label":"","sortable":false},"5":{"col":"map","label":"","sortable":false}},"rows":[{"streetlink":true,"cityaddition":"","map":false,"districtlink":false,"plz":"01067","city":"Dresden"},{"streetlink":true,"cityaddition":"","map":false,"districtlink":false,"plz":"01069","city":"Dresden"},{"streetlink":true,"cityaddition":"","map":false,"districtlink":false,"plz":"01097","city":"Dresden"},{"streetlink":true,"cityaddition":"","map":false,"districtlink":false,"plz":"01099","city":"Dresden"},{"streetlink":true,"cityaddition":"","map":false,"districtlink":false,"plz":"01108","city":"Dresden"},{"streetlink":true,"cityaddition":"","map":false,"districtlink":false,"plz":"01109","city":"Dresden"},{"streetlink":true,"cityaddition":"","map":false,"districtlink":false,"plz":"01127","city":"Dresden"},{"streetlink":true,"cityaddition":"","map":false,"districtlink":false,"plz":"01129","city":"Dresden"},{"streetlink":true,"cityaddition":"","map":false,"districtlink":false,"plz":"01139","city":"Dresden"},{"streetlink":true,"cityaddition":"","map":false,"districtlink":false,"plz":"01156","city":"Dresden"},{"streetlink":true,"cityaddition":"","map":false,"districtlink":false,"plz":"01157","city":"Dresden"},{"streetlink":true,"cityaddition":"","map":false,"districtlink":false,"plz":"01159","city":"Dresden"},{"streetlink":true,"cityaddition":"","map":false,"districtlink":false,"plz":"01169","city":"Dresden"},{"streetlink":true,"cityaddition":"","map":false,"districtlink":false,"plz":"01187","city":"Dresden"},{"streetlink":true,"cityaddition":"","map":false,"districtlink":false,"plz":"01189","city":"Dresden"},{"streetlink":true,"cityaddition":"","map":false,"districtlink":false,"plz":"01217","city":"Dresden"},{"streetlink":true,"cityaddition":"","map":false,"districtlink":false,"plz":"01219","city":"Dresden"},{"streetlink":true,"cityaddition":"","map":false,"districtlink":false,"plz":"01237","city":"Dresden"},{"streetlink":true,"cityaddition":"","map":false,"districtlink":false,"plz":"01239","city":"Dresden"},{"streetlink":true,"cityaddition":"","map":false,"districtlink":false,"plz":"01257","city":"Dresden"},{"streetlink":true,"cityaddition":"","map":false,"districtlink":false,"plz":"01259","city":"Dresden"},{"streetlink":true,"cityaddition":"","map":false,"districtlink":false,"plz":"01277","city":"Dresden"},{"streetlink":true,"cityaddition":"","map":false,"districtlink":false,"plz":"01279","city":"Dresden"},{"streetlink":true,"cityaddition":"","map":false,"districtlink":false,"plz":"01307","city":"Dresden"},{"streetlink":true,"cityaddition":"","map":false,"districtlink":false,"plz":"01309","city":"Dresden"},{"streetlink":true,"cityaddition":"","map":false,"districtlink":false,"plz":"01324","city":"Dresden"},{"streetlink":true,"cityaddition":"","map":false,"districtlink":false,"plz":"01326","city":"Dresden"},{"streetlink":true,"cityaddition":"","map":false,"districtlink":false,"plz":"01328","city":"Dresden"},{"streetlink":true,"cityaddition":"","map":false,"districtlink":false,"plz":"01445","city":"Radebeul"},{"streetlink":true,"cityaddition":"Sachs","map":false,"districtlink":false,"plz":"01454","city":"Radeberg"},{"streetlink":true,"cityaddition":"b. Radeberg","map":false,"districtlink":false,"plz":"01454","city":"Wachau"},{"streetlink":true,"cityaddition":"","map":false,"districtlink":false,"plz":"01458","city":"Ottendorf-Okrilla"},{"streetlink":true,"cityaddition":"","map":false,"districtlink":false,"plz":"01465","city":"Langebrück"},{"streetlink":true,"cityaddition":"b Dresden","map":false,"districtlink":false,"plz":"01465","city":"Schönborn"},{"streetlink":true,"cityaddition":"b Dresden","map":false,"districtlink":false,"plz":"01468","city":"Moritzburg"},{"streetlink":true,"cityaddition":"","map":false,"districtlink":false,"plz":"01471","city":"Radeburg"},{"streetlink":true,"cityaddition":"b Dresden","map":false,"districtlink":false,"plz":"01477","city":"Arnsdorf"},{"streetlink":true,"cityaddition":"Sachs","map":false,"districtlink":false,"plz":"01558","city":"Großenhain"},{"streetlink":true,"cityaddition":"b Ortrand","map":false,"districtlink":false,"plz":"01561","city":"Böhla"},{"streetlink":true,"cityaddition":"b Großenhain, Sachs","map":false,"districtlink":false,"plz":"01561","city":"Ebersbach"},{"streetlink":true,"cityaddition":"b Großenhain, Sachs","map":false,"districtlink":false,"plz":"01561","city":"Fasanerie"},{"streetlink":true,"cityaddition":"Sachs","map":false,"districtlink":false,"plz":"01561","city":"Großenhain"},{"streetlink":true,"cityaddition":"","map":false,"districtlink":false,"plz":"01561","city":"Kraußnitz"},{"streetlink":true,"cityaddition":"b Großenhain, Sachs","map":false,"districtlink":false,"plz":"01561","city":"Lampertswalde"},{"streetlink":true,"cityaddition":"","map":false,"districtlink":false,"plz":"01561","city":"Liega"},{"streetlink":true,"cityaddition":"","map":false,"districtlink":false,"plz":"01561","city":"Priestewitz"},{"streetlink":true,"cityaddition":"b Großenhain, Sachs","map":false,"districtlink":false,"plz":"01561","city":"Schönfeld"},{"streetlink":true,"cityaddition":"","map":false,"districtlink":false,"plz":"01561","city":"Thiendorf"},{"streetlink":true,"cityaddition":"","map":false,"districtlink":false,"plz":"01587","city":"Riesa"},{"streetlink":true,"cityaddition":"","map":false,"districtlink":false,"plz":"01589","city":"Riesa"},{"streetlink":true,"cityaddition":"","map":false,"districtlink":false,"plz":"01591","city":"Riesa"},{"streetlink":true,"cityaddition":"b Riesa","map":false,"districtlink":false,"plz":"01594","city":"Dobernitz"},{"streetlink":true,"cityaddition":"","map":false,"districtlink":false,"plz":"01594","city":"Dösitz"},{"streetlink":true,"cityaddition":"b Riesa","map":false,"districtlink":false,"plz":"01594","city":"Gleina"},{"streetlink":true,"cityaddition":"","map":false,"districtlink":false,"plz":"01594","city":"Groptitz"},{"streetlink":true,"cityaddition":"b Riesa","map":false,"districtlink":false,"plz":"01594","city":"Hirschstein"},{"streetlink":true,"cityaddition":"","map":false,"districtlink":false,"plz":"01594","city":"Ibanitz"},{"streetlink":true,"cityaddition":"b Riesa","map":false,"districtlink":false,"plz":"01594","city":"Kalbitz"},{"streetlink":true,"cityaddition":"","map":false,"districtlink":false,"plz":"01594","city":"Panitz"},{"streetlink":true,"cityaddition":"","map":false,"districtlink":false,"plz":"01594","city":"Plotitz"},{"streetlink":true,"cityaddition":"b Riesa","map":false,"districtlink":false,"plz":"01594","city":"Prositz"},{"streetlink":true,"cityaddition":"b Riesa","map":false,"districtlink":false,"plz":"01594","city":"Pöhsig"},{"streetlink":true,"cityaddition":"","map":false,"districtlink":false,"plz":"01594","city":"Riesa"},{"streetlink":true,"cityaddition":"","map":false,"districtlink":false,"plz":"01594","city":"Seerhausen"},{"streetlink":true,"cityaddition":"","map":false,"districtlink":false,"plz":"01594","city":"Staucha"},{"streetlink":true,"cityaddition":"","map":false,"districtlink":false,"plz":"01594","city":"Stauchitz"},{"streetlink":true,"cityaddition":"b Riesa","map":false,"districtlink":false,"plz":"01594","city":"Steudten"},{"streetlink":true,"cityaddition":"","map":false,"districtlink":false,"plz":"01594","city":"Stösitz"},{"streetlink":true,"cityaddition":"b Riesa","map":false,"districtlink":false,"plz":"01594","city":"Treben"},{"streetlink":true,"cityaddition":"b Riesa","map":false,"districtlink":false,"plz":"01609","city":"Gröditz"},{"streetlink":true,"cityaddition":"b Riesa","map":false,"districtlink":false,"plz":"01609","city":"Heidehäuser"},{"streetlink":true,"cityaddition":"b Riesa","map":false,"districtlink":false,"plz":"01609","city":"Lichtensee"},{"streetlink":true,"cityaddition":"","map":false,"districtlink":false,"plz":"01609","city":"Nauwalde"},{"streetlink":true,"cityaddition":"","map":false,"districtlink":false,"plz":"01609","city":"Peritz"},{"streetlink":true,"cityaddition":"","map":false,"districtlink":false,"plz":"01609","city":"Röderaue"},{"streetlink":true,"cityaddition":"","map":false,"districtlink":false,"plz":"01609","city":"Streumen"},{"streetlink":true,"cityaddition":"b Riesa","map":false,"districtlink":false,"plz":"01609","city":"Tiefenau"},{"streetlink":true,"cityaddition":"b Riesa","map":false,"districtlink":false,"plz":"01609","city":"Wülknitz"},{"streetlink":true,"cityaddition":"","map":false,"districtlink":false,"plz":"01612","city":"Diesbar-Seußlitz"},{"streetlink":true,"cityaddition":"","map":false,"districtlink":false,"plz":"01612","city":"Glaubitz"},{"streetlink":true,"cityaddition":"","map":false,"districtlink":false,"plz":"01612","city":"Nünchritz"},{"streetlink":true,"cityaddition":"","map":false,"districtlink":false,"plz":"01616","city":"Strehla"},{"streetlink":true,"cityaddition":"","map":false,"districtlink":false,"plz":"01619","city":"Zeithain"},{"streetlink":true,"cityaddition":"","map":false,"districtlink":false,"plz":"01623","city":"Lommatzsch"},{"streetlink":true,"cityaddition":"b Dresden","map":false,"districtlink":false,"plz":"01640","city":"Coswig"},{"streetlink":true,"cityaddition":"Sachs","map":false,"districtlink":false,"plz":"01662","city":"Meißen"},{"streetlink":true,"cityaddition":"","map":false,"districtlink":false,"plz":"01665","city":"Diera-Zehren"},{"streetlink":true,"cityaddition":"","map":false,"districtlink":false,"plz":"01665","city":"Klipphausen"},{"streetlink":true,"cityaddition":"","map":false,"districtlink":false,"plz":"01665","city":"Käbschütztal"},{"streetlink":true,"cityaddition":"","map":false,"districtlink":false,"plz":"01683","city":"Nossen"},{"streetlink":true,"cityaddition":"b Meißen, Sachs","map":false,"districtlink":false,"plz":"01689","city":"Niederau"},{"streetlink":true,"cityaddition":"","map":false,"districtlink":false,"plz":"01689","city":"Weinböhla"},{"streetlink":true,"cityaddition":"","map":false,"districtlink":false,"plz":"01705","city":"Freital"},{"streetlink":true,"cityaddition":"b Freital","map":false,"districtlink":false,"plz":"01723","city":"Grumbach"},{"streetlink":true,"cityaddition":"","map":false,"districtlink":false,"plz":"01723","city":"Helbigsdorf-Blankenstein"},{"streetlink":true,"cityaddition":"","map":false,"districtlink":false,"plz":"01723","city":"Kesselsdorf"},{"streetlink":true,"cityaddition":"","map":false,"districtlink":false,"plz":"01723","city":"Mohorn"},{"streetlink":true,"cityaddition":"","map":false,"districtlink":false,"plz":"01723","city":"Wilsdruff"},{"streetlink":true,"cityaddition":"","map":false,"districtlink":false,"plz":"01728","city":"Bannewitz"},{"streetlink":true,"cityaddition":"b Dresden","map":false,"districtlink":false,"plz":"01731","city":"Kreischa"},{"streetlink":true,"cityaddition":"Sachs","map":false,"districtlink":false,"plz":"01734","city":"Rabenau"},{"streetlink":true,"cityaddition":"b Freital","map":false,"districtlink":false,"plz":"01737","city":"Braunsdorf"},{"streetlink":true,"cityaddition":"","map":false,"districtlink":false,"plz":"01737","city":"Kleinopitz"},{"streetlink":true,"cityaddition":"","map":false,"districtlink":false,"plz":"01737","city":"Kurort Hartha"},{"streetlink":true,"cityaddition":"","map":false,"districtlink":false,"plz":"01737","city":"Oberhermsdorf"},{"streetlink":true,"cityaddition":"","map":false,"districtlink":false,"plz":"01737","city":"Pohrsdorf"},{"streetlink":true,"cityaddition":"","map":false,"districtlink":false,"plz":"01737","city":"Tharandt"},{"streetlink":true,"cityaddition":"","map":false,"districtlink":false,"plz":"01738","city":"Dorfhain"},{"streetlink":true,"cityaddition":"","map":false,"districtlink":false,"plz":"01744","city":"Dippoldiswalde"},{"streetlink":true,"cityaddition":"","map":false,"districtlink":false,"plz":"01762","city":"Hartmannsdorf-Reichenau"},{"streetlink":true,"cityaddition":"Sachs","map":false,"districtlink":false,"plz":"01768","city":"Glashütte"},{"streetlink":true,"cityaddition":"Erzgeb","map":false,"districtlink":false,"plz":"01773","city":"Altenberg"},{"streetlink":true,"cityaddition":"Sachs","map":false,"districtlink":false,"plz":"01774","city":"Klingenberg"},{"streetlink":true,"cityaddition":"","map":false,"districtlink":false,"plz":"01776","city":"Hermsdorf-Seyde"},{"streetlink":true,"cityaddition":"","map":false,"districtlink":false,"plz":"01776","city":"Hermsdorf/Erzgeb."},{"streetlink":true,"cityaddition":"b Dippoldiswalde","map":false,"districtlink":false,"plz":"01778","city":"Fürstenau"},{"streetlink":true,"cityaddition":"b Dippoldiswalde","map":false,"districtlink":false,"plz":"01778","city":"Fürstenwalde"},{"streetlink":true,"cityaddition":"","map":false,"districtlink":false,"plz":"01778","city":"Geising"},{"streetlink":true,"cityaddition":"Sachs","map":false,"districtlink":false,"plz":"01778","city":"Lauenstein"},{"streetlink":true,"cityaddition":"b Dippoldiswalde","map":false,"districtlink":false,"plz":"01778","city":"Liebenau"},{"streetlink":true,"cityaddition":"","map":false,"districtlink":false,"plz":"01778","city":"Müglitz"},{"streetlink":true,"cityaddition":"","map":false,"districtlink":false,"plz":"01796","city":"Dohma"},{"streetlink":true,"cityaddition":"","map":false,"districtlink":false,"plz":"01796","city":"Pirna"},{"streetlink":true,"cityaddition":"","map":false,"districtlink":false,"plz":"01796","city":"Struppen"},{"streetlink":true,"cityaddition":"Sachs","map":false,"districtlink":false,"plz":"01809","city":"Dohna"},{"streetlink":true,"cityaddition":"Sachs","map":false,"districtlink":false,"plz":"01809","city":"Heidenau"},{"streetlink":true,"cityaddition":"","map":false,"districtlink":false,"plz":"01809","city":"Müglitztal"},{"streetlink":true,"cityaddition":"","map":false,"districtlink":false,"plz":"01814","city":"Bad Schandau"},{"streetlink":true,"cityaddition":"","map":false,"districtlink":false,"plz":"01814","city":"Kleingießhübel"},{"streetlink":true,"cityaddition":"b Pirna","map":false,"districtlink":false,"plz":"01814","city":"Rathmannsdorf"},{"streetlink":true,"cityaddition":"b Bad Schandau","map":false,"districtlink":false,"plz":"01814","city":"Reinhardtsdorf"},{"streetlink":true,"cityaddition":"b Pirna","map":false,"districtlink":false,"plz":"01814","city":"Schöna"},{"streetlink":true,"cityaddition":"","map":false,"districtlink":false,"plz":"01816","city":"Bad Gottleuba-Berggießhübel"},{"streetlink":true,"cityaddition":"","map":false,"districtlink":false,"plz":"01819","city":"Bahretal"},{"streetlink":true,"cityaddition":"","map":false,"districtlink":false,"plz":"01824","city":"Gohrisch"},{"streetlink":true,"cityaddition":"Sachs","map":false,"districtlink":false,"plz":"01824","city":"Kurort Rathen"},{"streetlink":true,"cityaddition":"","map":false,"districtlink":false,"plz":"01824","city":"Königstein/Sächs. Schw."},{"streetlink":true,"cityaddition":"","map":false,"districtlink":false,"plz":"01824","city":"Rosenthal-Bielatal"},{"streetlink":true,"cityaddition":"","map":false,"districtlink":false,"plz":"01825","city":"Liebstadt"},{"streetlink":true,"cityaddition":"","map":false,"districtlink":false,"plz":"01829","city":"Stadt Wehlen"},{"streetlink":true,"cityaddition":"","map":false,"districtlink":false,"plz":"01833","city":"Dürrröhrsdorf-Dittersbach"},{"streetlink":true,"cityaddition":"","map":false,"districtlink":false,"plz":"01833","city":"Stolpen"},{"streetlink":true,"cityaddition":"","map":false,"districtlink":false,"plz":"01844","city":"Neustadt i. Sa."},{"streetlink":true,"cityaddition":"Sachs","map":false,"districtlink":false,"plz":"01847","city":"Lohmen"},{"streetlink":true,"cityaddition":"","map":false,"districtlink":false,"plz":"01848","city":"Hohnstein"},{"streetlink":true,"cityaddition":"b Sebnitz","map":false,"districtlink":false,"plz":"01855","city":"Altendorf"},{"streetlink":true,"cityaddition":"","map":false,"districtlink":false,"plz":"01855","city":"Hinterhermsdorf"},{"streetlink":true,"cityaddition":"b Sebnitz","map":false,"districtlink":false,"plz":"01855","city":"Lichtenhain"},{"streetlink":true,"cityaddition":"","map":false,"districtlink":false,"plz":"01855","city":"Mittelndorf"},{"streetlink":true,"cityaddition":"b Sebnitz","map":false,"districtlink":false,"plz":"01855","city":"Ottendorf"},{"streetlink":true,"cityaddition":"","map":false,"districtlink":false,"plz":"01855","city":"Saupsdorf"},{"streetlink":true,"cityaddition":"","map":false,"districtlink":false,"plz":"01855","city":"Sebnitz"},{"streetlink":true,"cityaddition":"b Sebnitz","map":false,"districtlink":false,"plz":"01855","city":"Zeughaus"},{"streetlink":true,"cityaddition":"","map":false,"districtlink":false,"plz":"01877","city":"Bischofswerda"},{"streetlink":true,"cityaddition":"","map":false,"districtlink":false,"plz":"01877","city":"Demitz-Thumitz"},{"streetlink":true,"cityaddition":"b Bischofswerda","map":false,"districtlink":false,"plz":"01877","city":"Naundorf"},{"streetlink":true,"cityaddition":"","map":false,"districtlink":false,"plz":"01877","city":"Rammenau"},{"streetlink":true,"cityaddition":"","map":false,"districtlink":false,"plz":"01877","city":"Schmölln-Putzkau"},{"streetlink":true,"cityaddition":"b Bischofswerda","map":false,"districtlink":false,"plz":"01896","city":"Lichtenberg"},{"streetlink":true,"cityaddition":"","map":false,"districtlink":false,"plz":"01896","city":"Ohorn"},{"streetlink":true,"cityaddition":"","map":false,"districtlink":false,"plz":"01896","city":"Pulsnitz"},{"streetlink":true,"cityaddition":"","map":false,"districtlink":false,"plz":"01900","city":"Bretnig-Hauswalde"},{"streetlink":true,"cityaddition":"OL","map":false,"districtlink":false,"plz":"01900","city":"Großröhrsdorf"},{"streetlink":true,"cityaddition":"","map":false,"districtlink":false,"plz":"01904","city":"Neukirch/Lausitz"},{"streetlink":true,"cityaddition":"","map":false,"districtlink":false,"plz":"01904","city":"Ringenhain"},{"streetlink":true,"cityaddition":"","map":false,"districtlink":false,"plz":"01904","city":"Steinigtwolmsdorf"},{"streetlink":true,"cityaddition":"","map":false,"districtlink":false,"plz":"01904","city":"Weifa"},{"streetlink":true,"cityaddition":"","map":false,"districtlink":false,"plz":"01906","city":"Burkau"},{"streetlink":true,"cityaddition":"b Bischofswerda","map":false,"districtlink":false,"plz":"01909","city":"Frankenthal"},{"streetlink":true,"cityaddition":"","map":false,"districtlink":false,"plz":"01909","city":"Großharthau"},{"streetlink":true,"cityaddition":"","map":false,"districtlink":false,"plz":"01909","city":"Großharthau-Bühlau"},{"streetlink":true,"cityaddition":"","map":false,"districtlink":false,"plz":"01909","city":"Großharthau-Schmiedefeld"},{"streetlink":true,"cityaddition":"","map":false,"districtlink":false,"plz":"01909","city":"Großharthau-Seeligstadt"},{"streetlink":true,"cityaddition":"","map":false,"districtlink":false,"plz":"01917","city":"Kamenz"},{"streetlink":true,"cityaddition":"","map":false,"districtlink":false,"plz":"01920","city":"Crostwitz"},{"streetlink":true,"cityaddition":"","map":false,"districtlink":false,"plz":"01920","city":"Elstra"},{"streetlink":true,"cityaddition":"","map":false,"districtlink":false,"plz":"01920","city":"Haselbachtal"},{"streetlink":true,"cityaddition":"","map":false,"districtlink":false,"plz":"01920","city":"Nebelschütz"},{"streetlink":true,"cityaddition":"","map":false,"districtlink":false,"plz":"01920","city":"Oßling"},{"streetlink":true,"cityaddition":"","map":false,"districtlink":false,"plz":"01920","city":"Panschwitz-Kuckau"},{"streetlink":true,"cityaddition":"","map":false,"districtlink":false,"plz":"01920","city":"Ralbitz-Rosenthal"},{"streetlink":true,"cityaddition":"","map":false,"districtlink":false,"plz":"01920","city":"Räckelwitz"},{"streetlink":true,"cityaddition":"","map":false,"districtlink":false,"plz":"01920","city":"Schönteichen"},{"streetlink":true,"cityaddition":"b Pulsnitz","map":false,"districtlink":false,"plz":"01920","city":"Steina"},{"streetlink":true,"cityaddition":"","map":false,"districtlink":false,"plz":"01936","city":"Großnaundorf"},{"streetlink":true,"cityaddition":"","map":false,"districtlink":false,"plz":"01936","city":"Königsbrück"},{"streetlink":true,"cityaddition":"","map":false,"districtlink":false,"plz":"01936","city":"Laußnitz"},{"streetlink":true,"cityaddition":"b Königsbrück","map":false,"districtlink":false,"plz":"01936","city":"Neukirch"},{"streetlink":true,"cityaddition":"","map":false,"districtlink":false,"plz":"01936","city":"Schwepnitz"},{"streetlink":true,"cityaddition":"OL","map":false,"districtlink":false,"plz":"01945","city":"Frauendorf"},{"streetlink":true,"cityaddition":"OL","map":false,"districtlink":false,"plz":"01945","city":"Grünewald"},{"streetlink":true,"cityaddition":"OL","map":false,"districtlink":false,"plz":"01945","city":"Guteborn"},{"streetlink":true,"cityaddition":"b Ruhland","map":false,"districtlink":false,"plz":"01945","city":"Hermsdorf"},{"streetlink":true,"cityaddition":"","map":false,"districtlink":false,"plz":"01945","city":"Hohenbocka"},{"streetlink":true,"cityaddition":"","map":false,"districtlink":false,"plz":"01945","city":"Kroppen"},{"streetlink":true,"cityaddition":"OL","map":false,"districtlink":false,"plz":"01945","city":"Lindenau"},{"streetlink":true,"cityaddition":"","map":false,"districtlink":false,"plz":"01945","city":"Peickwitz"},{"streetlink":true,"cityaddition":"","map":false,"districtlink":false,"plz":"01945","city":"Ruhland"},{"streetlink":true,"cityaddition":"b Ruhland","map":false,"districtlink":false,"plz":"01945","city":"Schwarzbach"},{"streetlink":true,"cityaddition":"b Ruhland","map":false,"districtlink":false,"plz":"01945","city":"Tettau"},{"streetlink":true,"cityaddition":"","map":false,"districtlink":false,"plz":"01968","city":"Brieske"},{"streetlink":true,"cityaddition":"","map":false,"districtlink":false,"plz":"01968","city":"Großkoschen"},{"streetlink":true,"cityaddition":"","map":false,"districtlink":false,"plz":"01968","city":"Hörlitz"},{"streetlink":true,"cityaddition":"","map":false,"districtlink":false,"plz":"01968","city":"Niemtsch"},{"streetlink":true,"cityaddition":"","map":false,"districtlink":false,"plz":"01968","city":"Sedlitz"},{"streetlink":true,"cityaddition":"NL","map":false,"districtlink":false,"plz":"01968","city":"Senftenberg"},{"streetlink":true,"cityaddition":"","map":false,"districtlink":false,"plz":"01979","city":"Lauchhammer"},{"streetlink":true,"cityaddition":"","map":false,"districtlink":false,"plz":"01983","city":"Großräschen"},{"streetlink":true,"cityaddition":"","map":false,"districtlink":false,"plz":"01987","city":"Schwarzheide"},{"streetlink":true,"cityaddition":"b Ruhland","map":false,"districtlink":false,"plz":"01990","city":"Frauwalde"},{"streetlink":true,"cityaddition":"","map":false,"districtlink":false,"plz":"01990","city":"Großkmehlen"},{"streetlink":true,"cityaddition":"","map":false,"districtlink":false,"plz":"01990","city":"Kleinkmehlen"},{"streetlink":true,"cityaddition":"","map":false,"districtlink":false,"plz":"01990","city":"Ortrand"},{"streetlink":true,"cityaddition":"","map":false,"districtlink":false,"plz":"01993","city":"Schipkau"},{"streetlink":true,"cityaddition":"","map":false,"districtlink":false,"plz":"01994","city":"Annahütte"},{"streetlink":true,"cityaddition":"","map":false,"districtlink":false,"plz":"01994","city":"Drochow"},{"streetlink":true,"cityaddition":"NL","map":false,"districtlink":false,"plz":"01994","city":"Meuro"},{"streetlink":true,"cityaddition":"","map":false,"districtlink":false,"plz":"01996","city":"Hosena"},{"streetlink":true,"cityaddition":"","map":false,"districtlink":false,"plz":"01998","city":"Klettwitz"}],"switchTo":"","success":true}