{"finda":"streets","searchString":"02625 Bautzen","count":396,"header":{"0":{"col":"plz","label":"PLZ","sortable":true},"1":{"col":"city","label":"Ortsname","sortable":true},"2":{"col":"cityaddition","label":"Ortszusatz","sortable":true},"3":{"col":"district","label":"Ortsteil","sortable":true},"4":{"col":"street","label":"Straße","sortable":true},"5":{"col":"number","label":"Nummer","sortable":true},"6":{"col":"map","label":"","sortable":false}},"rows":[{"cityaddition":"Sachs","street":"Adolph-Kolping-Str.","map":true,"plz":"02625","number":"alle","district":"Bautzen","city":"Bautzen"},{"cityaddition":"Sachs","street":"Albert-Einstein-Str.","map":true,"plz":"02625","number":"alle","district":"Bautzen","city":"Bautzen"},{"cityaddition":"Sachs","street":"Albert-Schweitzer-Str.","map":true,"plz":"02625","number":"alle","district":"Bautzen","city":"Bautzen"},{"cityaddition":"Sachs","street":"Albrecht-Dürer-Str.","map":true,"plz":"02625","number":"alle","district":"Bautzen","city":"Bautzen"},{"cityaddition":"Sachs","street":"Alois-Andritzki-Str.","map":true,"plz":"02625","number":"alle","district":"Bautzen","city":"Bautzen"},{"cityaddition":"Sachs","street":"Alt-Rattwitz","map":true,"plz":"02625","number":"alle","district":"Stiebitz","city":"Bautzen"},{"cityaddition":"Sachs","street":"Alte Dorfstr.","map":true,"plz":"02625","number":"alle","district":"Niederkaina","city":"Bautzen"},{"cityaddition":"Sachs","street":"Alte Dresdener Str.","map":true,"plz":"02625","number":"alle","district":"Stiebitz","city":"Bautzen"},{"cityaddition":"Sachs","street":"Alter Schmoler Weg","map":true,"plz":"02625","number":"alle","district":"Bautzen","city":"Bautzen"},{"cityaddition":"Sachs","street":"Alter Schäferweg","map":true,"plz":"02625","number":"alle","district":"Niederkaina","city":"Bautzen"},{"cityaddition":"Sachs","street":"Am Albrechtsbach","map":true,"plz":"02625","number":"alle","district":"Bautzen","city":"Bautzen"},{"cityaddition":"Sachs","street":"Am Alten Weinberg","map":true,"plz":"02625","number":"alle","district":"Bautzen","city":"Bautzen"},{"cityaddition":"Sachs","street":"Am Anger","map":true,"plz":"02625","number":"alle","district":"Großwelka","city":"Bautzen"},{"cityaddition":"Sachs","street":"Am Carolagarten","map":true,"plz":"02625","number":"alle","district":"Bautzen","city":"Bautzen"},{"cityaddition":"Sachs","street":"Am Chorberg","map":true,"plz":"02625","number":"alle","district":"Salzenforst","city":"Bautzen"},{"cityaddition":"Sachs","street":"Am Feldschlößchen","map":true,"plz":"02625","number":"alle","district":"Bautzen","city":"Bautzen"},{"cityaddition":"Sachs","street":"Am Hainberg","map":true,"plz":"02625","number":"alle","district":"Teichnitz","city":"Bautzen"},{"cityaddition":"Sachs","street":"Am Hang","map":true,"plz":"02625","number":"alle","district":"Oberkaina","city":"Bautzen"},{"cityaddition":"Sachs","street":"Am Lubasberg","map":true,"plz":"02625","number":"alle","district":"Burk","city":"Bautzen"},{"cityaddition":"Sachs","street":"Am Protschenberg","map":true,"plz":"02625","number":"alle","district":"Bautzen","city":"Bautzen"},{"cityaddition":"Sachs","street":"Am Schafberg","map":true,"plz":"02625","number":"alle","district":"Niederkaina","city":"Bautzen"},{"cityaddition":"Sachs","street":"Am Schneiderberg","map":true,"plz":"02625","number":"alle","district":"Kleinwelka","city":"Bautzen"},{"cityaddition":"Sachs","street":"Am Schützenplatz","map":true,"plz":"02625","number":"alle","district":"Bautzen","city":"Bautzen"},{"cityaddition":"Sachs","street":"Am Stadtwall","map":true,"plz":"02625","number":"alle","district":"Bautzen","city":"Bautzen"},{"cityaddition":"Sachs","street":"Am Staudamm","map":true,"plz":"02625","number":"alle","district":"Burk","city":"Bautzen"},{"cityaddition":"Sachs","street":"Am Steinhübel","map":true,"plz":"02625","number":"alle","district":"Bautzen","city":"Bautzen"},{"cityaddition":"Sachs","street":"Am Strehlaer Wasser","map":true,"plz":"02625","number":"alle","district":"Oberkaina","city":"Bautzen"},{"cityaddition":"Sachs","street":"Am Wassertrog","map":true,"plz":"02625","number":"alle","district":"Niederkaina","city":"Bautzen"},{"cityaddition":"Sachs","street":"Am Wasserturm","map":true,"plz":"02625","number":"1 - 17 (ungerade)","district":"Kleinwelka","city":"Bautzen"},{"cityaddition":"Sachs","street":"Am Wasserturm","map":true,"plz":"02625","number":"2 - 22 (gerade)","district":"Kleinwelka","city":"Bautzen"},{"cityaddition":"Sachs","street":"Am Wasserturm","map":true,"plz":"02625","number":"19 - 999 (ungerade)","district":"Kleinseidau","city":"Bautzen"},{"cityaddition":"Sachs","street":"Am Wasserturm","map":true,"plz":"02625","number":"24 - 998 (gerade)","district":"Kleinseidau","city":"Bautzen"},{"cityaddition":"Sachs","street":"Am Ziegelwall","map":true,"plz":"02625","number":"alle","district":"Bautzen","city":"Bautzen"},{"cityaddition":"Sachs","street":"Am Zwinger","map":true,"plz":"02625","number":"alle","district":"Bautzen","city":"Bautzen"},{"cityaddition":"Sachs","street":"An den Fleischbänken","map":true,"plz":"02625","number":"alle","district":"Bautzen","city":"Bautzen"},{"cityaddition":"Sachs","street":"An den Steinbrüchen","map":true,"plz":"02625","number":"alle","district":"Burk","city":"Bautzen"},{"cityaddition":"Sachs","street":"An der Friedensbrücke","map":true,"plz":"02625","number":"alle","district":"Bautzen","city":"Bautzen"},{"cityaddition":"Sachs","street":"An der Hummel","map":true,"plz":"02625","number":"alle","district":"Bautzen","city":"Bautzen"},{"cityaddition":"Sachs","street":"An der Kirschallee","map":true,"plz":"02625","number":"alle","district":"Nadelwitz","city":"Bautzen"},{"cityaddition":"Sachs","street":"An der Königsmühle","map":true,"plz":"02625","number":"alle","district":"Bautzen","city":"Bautzen"},{"cityaddition":"Sachs","street":"An der Petrikirche","map":true,"plz":"02625","number":"alle","district":"Bautzen","city":"Bautzen"},{"cityaddition":"Sachs","street":"An der Ziegelei","map":true,"plz":"02625","number":"alle","district":"Niederkaina","city":"Bautzen"},{"cityaddition":"Sachs","street":"Andersen-Nexö-Str.","map":true,"plz":"02625","number":"alle","district":"Bautzen","city":"Bautzen"},{"cityaddition":"Sachs","street":"Apfelallee","map":true,"plz":"02625","number":"alle","district":"Auritz","city":"Bautzen"},{"cityaddition":"Sachs","street":"Arndtstr.","map":true,"plz":"02625","number":"alle","district":"Bautzen","city":"Bautzen"},{"cityaddition":"Sachs","street":"Arnoldstr.","map":true,"plz":"02625","number":"alle","district":"Bautzen","city":"Bautzen"},{"cityaddition":"Sachs","street":"August-Bebel-Platz","map":true,"plz":"02625","number":"alle","district":"Bautzen","city":"Bautzen"},{"cityaddition":"Sachs","street":"August-Bebel-Str.","map":true,"plz":"02625","number":"alle","district":"Bautzen","city":"Bautzen"},{"cityaddition":"Sachs","street":"Auritzer Dorfplatz","map":true,"plz":"02625","number":"alle","district":"Auritz","city":"Bautzen"},{"cityaddition":"Sachs","street":"Auritzer Weg","map":true,"plz":"02625","number":"2 - 28 (gerade)","district":"Bautzen","city":"Bautzen"},{"cityaddition":"Sachs","street":"Auritzer Weg","map":true,"plz":"02625","number":"7 - 23 (ungerade)","district":"Bautzen","city":"Bautzen"},{"cityaddition":"Sachs","street":"Auritzer Weg","map":true,"plz":"02625","number":"101 - 999 (ungerade)","district":"Auritz","city":"Bautzen"},{"cityaddition":"Sachs","street":"Auritzer Weg","map":true,"plz":"02625","number":"102 - 998 (gerade)","district":"Auritz","city":"Bautzen"},{"cityaddition":"Sachs","street":"Bahnhofstr.","map":true,"plz":"02625","number":"alle","district":"Bautzen","city":"Bautzen"},{"cityaddition":"Sachs","street":"Basankwitzer Str.","map":true,"plz":"02625","number":"alle","district":"Niederkaina","city":"Bautzen"},{"cityaddition":"Sachs","street":"Baschützer Str.","map":true,"plz":"02625","number":"alle","district":"Bautzen","city":"Bautzen"},{"cityaddition":"Sachs","street":"Bauerngasse","map":true,"plz":"02625","number":"alle","district":"Bautzen","city":"Bautzen"},{"cityaddition":"Sachs","street":"Beethovenstr.","map":true,"plz":"02625","number":"alle","district":"Bautzen","city":"Bautzen"},{"cityaddition":"Sachs","street":"Behringstr.","map":true,"plz":"02625","number":"alle","district":"Bautzen","city":"Bautzen"},{"cityaddition":"Sachs","street":"Bergweg","map":true,"plz":"02625","number":"alle","district":"Salzenforst","city":"Bautzen"},{"cityaddition":"Sachs","street":"Bertha-von-Suttner-Str.","map":true,"plz":"02625","number":"alle","district":"Bautzen","city":"Bautzen"},{"cityaddition":"Sachs","street":"Bertolt-Brecht-Str.","map":true,"plz":"02625","number":"alle","district":"Bautzen","city":"Bautzen"},{"cityaddition":"Sachs","street":"Bierweg","map":true,"plz":"02625","number":"alle","district":"Kleinwelka","city":"Bautzen"},{"cityaddition":"Sachs","street":"Birkenweg","map":true,"plz":"02625","number":"alle","district":"Bautzen","city":"Bautzen"},{"cityaddition":"Sachs","street":"Bjarnat-Krawc-Str.","map":true,"plz":"02625","number":"alle","district":"Bautzen","city":"Bautzen"},{"cityaddition":"Sachs","street":"Bleichenstr.","map":true,"plz":"02625","number":"alle","district":"Bautzen","city":"Bautzen"},{"cityaddition":"Sachs","street":"Bloaschütz","map":true,"plz":"02625","number":"alle","district":"Bloaschütz","city":"Bautzen"},{"cityaddition":"Sachs","street":"Boblitzer Str.","map":true,"plz":"02625","number":"alle","district":"Oberkaina","city":"Bautzen"},{"cityaddition":"Sachs","street":"Bolbritz","map":true,"plz":"02625","number":"alle","district":"Bolbritz","city":"Bautzen"},{"cityaddition":"Sachs","street":"Branntweingäßchen","map":true,"plz":"02625","number":"alle","district":"Bautzen","city":"Bautzen"},{"cityaddition":"Sachs","street":"Breitengasse","map":true,"plz":"02625","number":"alle","district":"Bautzen","city":"Bautzen"},{"cityaddition":"Sachs","street":"Breitscheidstr.","map":true,"plz":"02625","number":"alle","district":"Bautzen","city":"Bautzen"},{"cityaddition":"Sachs","street":"Burglehn","map":true,"plz":"02625","number":"alle","district":"Bautzen","city":"Bautzen"},{"cityaddition":"Sachs","street":"Burgplatz","map":true,"plz":"02625","number":"alle","district":"Bautzen","city":"Bautzen"},{"cityaddition":"Sachs","street":"Burker Höhe","map":true,"plz":"02625","number":"alle","district":"Burk","city":"Bautzen"},{"cityaddition":"Sachs","street":"Burker Str.","map":true,"plz":"02625","number":"alle","district":"Burk","city":"Bautzen"},{"cityaddition":"Sachs","street":"Buttermarkt","map":true,"plz":"02625","number":"alle","district":"Bautzen","city":"Bautzen"},{"cityaddition":"Sachs","street":"Clara-Zetkin-Str.","map":true,"plz":"02625","number":"alle","district":"Bautzen","city":"Bautzen"},{"cityaddition":"Sachs","street":"Czornebohstr.","map":true,"plz":"02625","number":"1 - 69 (ungerade)","district":"Bautzen","city":"Bautzen"},{"cityaddition":"Sachs","street":"Czornebohstr.","map":true,"plz":"02625","number":"2 - 998 (gerade)","district":"Bautzen","city":"Bautzen"},{"cityaddition":"Sachs","street":"Czornebohstr.","map":true,"plz":"02625","number":"85 - 999 (ungerade)","district":"Auritz","city":"Bautzen"},{"cityaddition":"Sachs","street":"Daimlerstr.","map":true,"plz":"02625","number":"alle","district":"Bautzen","city":"Bautzen"},{"cityaddition":"Sachs","street":"Damaschkestr.","map":true,"plz":"02625","number":"alle","district":"Bautzen","city":"Bautzen"},{"cityaddition":"Sachs","street":"Dieselstr.","map":true,"plz":"02625","number":"alle","district":"Bautzen","city":"Bautzen"},{"cityaddition":"Sachs","street":"Dorfplatz Teichnitz","map":true,"plz":"02625","number":"alle","district":"Teichnitz","city":"Bautzen"},{"cityaddition":"Sachs","street":"Dornschnabel","map":true,"plz":"02625","number":"alle","district":"Bautzen","city":"Bautzen"},{"cityaddition":"Sachs","street":"Dr.-Ernst-Mucke-Str.","map":true,"plz":"02625","number":"alle","district":"Bautzen","city":"Bautzen"},{"cityaddition":"Sachs","street":"Dr.-Irmgard-Ackermann-Str.","map":true,"plz":"02625","number":"alle","district":"Kleinwelka","city":"Bautzen"},{"cityaddition":"Sachs","street":"Dr.-Maria-Grollmuß-Str.","map":true,"plz":"02625","number":"alle","district":"Bautzen","city":"Bautzen"},{"cityaddition":"Sachs","street":"Dr.-Peter-Jordan-Str.","map":true,"plz":"02625","number":"alle","district":"Bautzen","city":"Bautzen"},{"cityaddition":"Sachs","street":"Dr.-Rohr-Str.","map":true,"plz":"02625","number":"alle","district":"Bautzen","city":"Bautzen"},{"cityaddition":"Sachs","street":"Dr.-Salvador-Allende-Str.","map":true,"plz":"02625","number":"alle","district":"Bautzen","city":"Bautzen"},{"cityaddition":"Sachs","street":"Drachestr.","map":true,"plz":"02625","number":"alle","district":"Bautzen","city":"Bautzen"},{"cityaddition":"Sachs","street":"Dresdener Str.","map":true,"plz":"02625","number":"1 - 57 (ungerade)","district":"Bautzen","city":"Bautzen"},{"cityaddition":"Sachs","street":"Dresdener Str.","map":true,"plz":"02625","number":"2 - 78 (gerade)","district":"Bautzen","city":"Bautzen"},{"cityaddition":"Sachs","street":"Dresdener Str.","map":true,"plz":"02625","number":"80 - 998 (gerade)","district":"Stiebitz","city":"Bautzen"},{"cityaddition":"Sachs","street":"Dresdener Str.","map":true,"plz":"02625","number":"81 - 999 (ungerade)","district":"Stiebitz","city":"Bautzen"},{"cityaddition":"Sachs","street":"Döberkitz","map":true,"plz":"02625","number":"alle","district":"Döberkitz","city":"Bautzen"},{"cityaddition":"Sachs","street":"Eckenerstr.","map":true,"plz":"02625","number":"alle","district":"Bautzen","city":"Bautzen"},{"cityaddition":"Sachs","street":"Edisonstr.","map":true,"plz":"02625","number":"alle","district":"Bautzen","city":"Bautzen"},{"cityaddition":"Sachs","street":"Eduard-Mörike-Str.","map":true,"plz":"02625","number":"alle","district":"Bautzen","city":"Bautzen"},{"cityaddition":"Sachs","street":"Eichenweg","map":true,"plz":"02625","number":"alle","district":"Teichnitz","city":"Bautzen"},{"cityaddition":"Sachs","street":"Erich-Klausnitzer-Str.","map":true,"plz":"02625","number":"alle","district":"Oberkaina","city":"Bautzen"},{"cityaddition":"Sachs","street":"Erich-Pfaff-Str.","map":true,"plz":"02625","number":"alle","district":"Bautzen","city":"Bautzen"},{"cityaddition":"Sachs","street":"Erich-Weinert-Str.","map":true,"plz":"02625","number":"alle","district":"Bautzen","city":"Bautzen"},{"cityaddition":"Sachs","street":"Fabrikstr.","map":true,"plz":"02625","number":"alle","district":"Bautzen","city":"Bautzen"},{"cityaddition":"Sachs","street":"Fallantgässchen","map":true,"plz":"02625","number":"alle","district":"Kleinwelka","city":"Bautzen"},{"cityaddition":"Sachs","street":"Felix-Wilhelm-Weg","map":true,"plz":"02625","number":"alle","district":"Oberkaina","city":"Bautzen"},{"cityaddition":"Sachs","street":"Fichteschulweg","map":true,"plz":"02625","number":"alle","district":"Bautzen","city":"Bautzen"},{"cityaddition":"Sachs","street":"Fichtestr.","map":true,"plz":"02625","number":"alle","district":"Bautzen","city":"Bautzen"},{"cityaddition":"Sachs","street":"Fiedlerstr.","map":true,"plz":"02625","number":"alle","district":"Bautzen","city":"Bautzen"},{"cityaddition":"Sachs","street":"Fischergasse","map":true,"plz":"02625","number":"alle","district":"Bautzen","city":"Bautzen"},{"cityaddition":"Sachs","street":"Fleischergasse","map":true,"plz":"02625","number":"alle","district":"Bautzen","city":"Bautzen"},{"cityaddition":"Sachs","street":"Fleischmarkt","map":true,"plz":"02625","number":"alle","district":"Bautzen","city":"Bautzen"},{"cityaddition":"Sachs","street":"Fliederweg","map":true,"plz":"02625","number":"alle","district":"Auritz","city":"Bautzen"},{"cityaddition":"Sachs","street":"Flinzstr.","map":true,"plz":"02625","number":"alle","district":"Bautzen","city":"Bautzen"},{"cityaddition":"Sachs","street":"Frankfurt","map":true,"plz":"02625","number":"alle","district":"Bautzen","city":"Bautzen"},{"cityaddition":"Sachs","street":"Frederic-Joliot-Curie-Str.","map":true,"plz":"02625","number":"alle","district":"Bautzen","city":"Bautzen"},{"cityaddition":"Sachs","street":"Friedhofsweg","map":true,"plz":"02625","number":"alle","district":"Kleinwelka","city":"Bautzen"},{"cityaddition":"Sachs","street":"Friedrich-Ebert-Str.","map":true,"plz":"02625","number":"alle","district":"Bautzen","city":"Bautzen"},{"cityaddition":"Sachs","street":"Friedrich-Engels-Platz","map":true,"plz":"02625","number":"alle","district":"Bautzen","city":"Bautzen"},{"cityaddition":"Sachs","street":"Friedrich-Gruhl-Str.","map":true,"plz":"02625","number":"alle","district":"Kleinwelka","city":"Bautzen"},{"cityaddition":"Sachs","street":"Friedrich-List-Str.","map":true,"plz":"02625","number":"alle","district":"Bautzen","city":"Bautzen"},{"cityaddition":"Sachs","street":"Friedrich-Olbricht-Str.","map":true,"plz":"02625","number":"alle","district":"Bautzen","city":"Bautzen"},{"cityaddition":"Sachs","street":"Friedrich-Wolf-Str.","map":true,"plz":"02625","number":"alle","district":"Bautzen","city":"Bautzen"},{"cityaddition":"Sachs","street":"Gareisstr.","map":true,"plz":"02625","number":"alle","district":"Bautzen","city":"Bautzen"},{"cityaddition":"Sachs","street":"Gartenheimweg","map":true,"plz":"02625","number":"alle","district":"Bautzen","city":"Bautzen"},{"cityaddition":"Sachs","street":"Gartenstr.","map":true,"plz":"02625","number":"alle","district":"Niederkaina","city":"Bautzen"},{"cityaddition":"Sachs","street":"Gerberberg","map":true,"plz":"02625","number":"alle","district":"Kleinwelka","city":"Bautzen"},{"cityaddition":"Sachs","street":"Gerbersiedlung","map":true,"plz":"02625","number":"alle","district":"Großwelka","city":"Bautzen"},{"cityaddition":"Sachs","street":"Gerberstr.","map":true,"plz":"02625","number":"alle","district":"Bautzen","city":"Bautzen"},{"cityaddition":"Sachs","street":"Gerhart-Hauptmann-Str.","map":true,"plz":"02625","number":"alle","district":"Bautzen","city":"Bautzen"},{"cityaddition":"Sachs","street":"Gesundbrunnenring","map":true,"plz":"02625","number":"alle","district":"Bautzen","city":"Bautzen"},{"cityaddition":"Sachs","street":"Gickelsberg","map":true,"plz":"02625","number":"alle","district":"Bautzen","city":"Bautzen"},{"cityaddition":"Sachs","street":"Glockengasse","map":true,"plz":"02625","number":"alle","district":"Kleinwelka","city":"Bautzen"},{"cityaddition":"Sachs","street":"Gneisenaustr.","map":true,"plz":"02625","number":"alle","district":"Bautzen","city":"Bautzen"},{"cityaddition":"Sachs","street":"Goethestr.","map":true,"plz":"02625","number":"alle","district":"Bautzen","city":"Bautzen"},{"cityaddition":"Sachs","street":"Goschwitzstr.","map":true,"plz":"02625","number":"alle","district":"Bautzen","city":"Bautzen"},{"cityaddition":"Sachs","street":"Großdubrauer Str.","map":true,"plz":"02625","number":"alle","district":"Kleinwelka","city":"Bautzen"},{"cityaddition":"Sachs","street":"Große Brüdergasse","map":true,"plz":"02625","number":"alle","district":"Bautzen","city":"Bautzen"},{"cityaddition":"Sachs","street":"Großwelkaer Str.","map":true,"plz":"02625","number":"alle","district":"Großwelka","city":"Bautzen"},{"cityaddition":"Sachs","street":"Grubditzer Weg","map":true,"plz":"02625","number":"alle","district":"Bautzen","city":"Bautzen"},{"cityaddition":"Sachs","street":"Gustav-Hertz-Str.","map":true,"plz":"02625","number":"alle","district":"Bautzen","city":"Bautzen"},{"cityaddition":"Sachs","street":"Gutsweg","map":true,"plz":"02625","number":"alle","district":"Teichnitz","city":"Bautzen"},{"cityaddition":"Sachs","street":"Handrij-Zejler-Str.","map":true,"plz":"02625","number":"alle","district":"Salzenforst","city":"Bautzen"},{"cityaddition":"Sachs","street":"Hanns-Eisler-Str.","map":true,"plz":"02625","number":"alle","district":"Bautzen","city":"Bautzen"},{"cityaddition":"Sachs","street":"Hauensteingasse","map":true,"plz":"02625","number":"alle","district":"Bautzen","city":"Bautzen"},{"cityaddition":"Sachs","street":"Hauptmarkt","map":true,"plz":"02625","number":"alle","district":"Bautzen","city":"Bautzen"},{"cityaddition":"Sachs","street":"Hauptstr.","map":true,"plz":"02625","number":"alle","district":"Kleinwelka","city":"Bautzen"},{"cityaddition":"Sachs","street":"Hegelstr.","map":true,"plz":"02625","number":"alle","district":"Bautzen","city":"Bautzen"},{"cityaddition":"Sachs","street":"Heinostr.","map":true,"plz":"02625","number":"alle","district":"Bautzen","city":"Bautzen"},{"cityaddition":"Sachs","street":"Heinrich-Heine-Str.","map":true,"plz":"02625","number":"alle","district":"Bautzen","city":"Bautzen"},{"cityaddition":"Sachs","street":"Heinrich-Theodor-Wehle-Str.","map":true,"plz":"02625","number":"alle","district":"Bautzen","city":"Bautzen"},{"cityaddition":"Sachs","street":"Heinrich-Zille-Str.","map":true,"plz":"02625","number":"alle","district":"Bautzen","city":"Bautzen"},{"cityaddition":"Sachs","street":"Heringstr.","map":true,"plz":"02625","number":"alle","district":"Bautzen","city":"Bautzen"},{"cityaddition":"Sachs","street":"Heydemannstr.","map":true,"plz":"02625","number":"alle","district":"Bautzen","city":"Bautzen"},{"cityaddition":"Sachs","street":"Hintere Brüdergasse","map":true,"plz":"02625","number":"alle","district":"Bautzen","city":"Bautzen"},{"cityaddition":"Sachs","street":"Hintere Reichenstr.","map":true,"plz":"02625","number":"alle","district":"Bautzen","city":"Bautzen"},{"cityaddition":"Sachs","street":"Hintergasse","map":true,"plz":"02625","number":"alle","district":"Bautzen","city":"Bautzen"},{"cityaddition":"Sachs","street":"Hinterm Schmiedeteich","map":true,"plz":"02625","number":"alle","district":"Großwelka","city":"Bautzen"},{"cityaddition":"Sachs","street":"Hofweg","map":true,"plz":"02625","number":"alle","district":"Stiebitz","city":"Bautzen"},{"cityaddition":"Sachs","street":"Hohengasse","map":true,"plz":"02625","number":"alle","district":"Bautzen","city":"Bautzen"},{"cityaddition":"Sachs","street":"Hohlweg","map":true,"plz":"02625","number":"alle","district":"Bolbritz","city":"Bautzen"},{"cityaddition":"Sachs","street":"Holzmarkt","map":true,"plz":"02625","number":"alle","district":"Bautzen","city":"Bautzen"},{"cityaddition":"Sachs","street":"Hoyerswerdaer Str.","map":true,"plz":"02625","number":"1 - 41 (ungerade)","district":"Bautzen","city":"Bautzen"},{"cityaddition":"Sachs","street":"Hoyerswerdaer Str.","map":true,"plz":"02625","number":"2 - 54 (gerade)","district":"Bautzen","city":"Bautzen"},{"cityaddition":"Sachs","street":"Hoyerswerdaer Str.","map":true,"plz":"02625","number":"85 - 91 (ungerade)","district":"Kleinseidau","city":"Bautzen"},{"cityaddition":"Sachs","street":"Hoyerswerdaer Str.","map":true,"plz":"02625","number":"101 - 999 (ungerade)","district":"Kleinwelka","city":"Bautzen"},{"cityaddition":"Sachs","street":"Hoyerswerdaer Str.","map":true,"plz":"02625","number":"108 - 998 (gerade)","district":"Kleinwelka","city":"Bautzen"},{"cityaddition":"Sachs","street":"Humboldtstr.","map":true,"plz":"02625","number":"alle","district":"Bautzen","city":"Bautzen"},{"cityaddition":"Sachs","street":"Innere Lauenstr.","map":true,"plz":"02625","number":"alle","district":"Bautzen","city":"Bautzen"},{"cityaddition":"Sachs","street":"Jagdweg","map":true,"plz":"02625","number":"alle","district":"Bautzen","city":"Bautzen"},{"cityaddition":"Sachs","street":"Jahnstr.","map":true,"plz":"02625","number":"alle","district":"Bautzen","city":"Bautzen"},{"cityaddition":"Sachs","street":"Jan-Skala-Str.","map":true,"plz":"02625","number":"alle","district":"Bautzen","city":"Bautzen"},{"cityaddition":"Sachs","street":"Johann-Sebastian-Bach-Str.","map":true,"plz":"02625","number":"alle","district":"Bautzen","city":"Bautzen"},{"cityaddition":"Sachs","street":"Johannes-Kepler-Str.","map":true,"plz":"02625","number":"alle","district":"Bautzen","city":"Bautzen"},{"cityaddition":"Sachs","street":"Johannes-R.-Becher-Str.","map":true,"plz":"02625","number":"alle","district":"Bautzen","city":"Bautzen"},{"cityaddition":"Sachs","street":"Juri-Gagarin-Str.","map":true,"plz":"02625","number":"alle","district":"Bautzen","city":"Bautzen"},{"cityaddition":"Sachs","street":"Jägerstr.","map":true,"plz":"02625","number":"alle","district":"Bautzen","city":"Bautzen"},{"cityaddition":"Sachs","street":"Kantstr.","map":true,"plz":"02625","number":"alle","district":"Bautzen","city":"Bautzen"},{"cityaddition":"Sachs","street":"Karl-Liebknecht-Str.","map":true,"plz":"02625","number":"alle","district":"Bautzen","city":"Bautzen"},{"cityaddition":"Sachs","street":"Karl-Marx-Str.","map":true,"plz":"02625","number":"alle","district":"Bautzen","city":"Bautzen"},{"cityaddition":"Sachs","street":"Karl-Thomas-Weg","map":true,"plz":"02625","number":"alle","district":"Kleinwelka","city":"Bautzen"},{"cityaddition":"Sachs","street":"Kaspar-Peuker-Str.","map":true,"plz":"02625","number":"alle","district":"Bautzen","city":"Bautzen"},{"cityaddition":"Sachs","street":"Kesselstr.","map":true,"plz":"02625","number":"alle","district":"Bautzen","city":"Bautzen"},{"cityaddition":"Sachs","street":"Kirchgasse","map":true,"plz":"02625","number":"alle","district":"Bautzen","city":"Bautzen"},{"cityaddition":"Sachs","street":"Kirchplatz","map":true,"plz":"02625","number":"alle","district":"Bautzen","city":"Bautzen"},{"cityaddition":"Sachs","street":"Kleine Baschützer Str.","map":true,"plz":"02625","number":"alle","district":"Bautzen","city":"Bautzen"},{"cityaddition":"Sachs","street":"Kleine Brüdergasse","map":true,"plz":"02625","number":"alle","district":"Bautzen","city":"Bautzen"},{"cityaddition":"Sachs","street":"Kleine Fichtestr.","map":true,"plz":"02625","number":"alle","district":"Bautzen","city":"Bautzen"},{"cityaddition":"Sachs","street":"Kleine Predigergasse","map":true,"plz":"02625","number":"alle","district":"Bautzen","city":"Bautzen"},{"cityaddition":"Sachs","street":"Kleiner Auritzer Weg","map":true,"plz":"02625","number":"alle","district":"Bautzen","city":"Bautzen"},{"cityaddition":"Sachs","street":"Kleinseidauer Str.","map":true,"plz":"02625","number":"1 - 9a (ungerade)","district":"Kleinwelka","city":"Bautzen"},{"cityaddition":"Sachs","street":"Kleinseidauer Str.","map":true,"plz":"02625","number":"4 - 6a (gerade)","district":"Kleinwelka","city":"Bautzen"},{"cityaddition":"Sachs","street":"Kleinseidauer Str.","map":true,"plz":"02625","number":"8 - 998 (gerade)","district":"Kleinseidau","city":"Bautzen"},{"cityaddition":"Sachs","street":"Kleinseidauer Str.","map":true,"plz":"02625","number":"11 - 999 (ungerade)","district":"Kleinseidau","city":"Bautzen"},{"cityaddition":"Sachs","street":"Kleinwelkaer Str.","map":true,"plz":"02625","number":"alle","district":"Bautzen","city":"Bautzen"},{"cityaddition":"Sachs","street":"Kleiststr.","map":true,"plz":"02625","number":"alle","district":"Bautzen","city":"Bautzen"},{"cityaddition":"Sachs","street":"Klosterstr.","map":true,"plz":"02625","number":"alle","district":"Bautzen","city":"Bautzen"},{"cityaddition":"Sachs","street":"Kornblumenweg","map":true,"plz":"02625","number":"alle","district":"Teichnitz","city":"Bautzen"},{"cityaddition":"Sachs","street":"Kornmarkt","map":true,"plz":"02625","number":"alle","district":"Bautzen","city":"Bautzen"},{"cityaddition":"Sachs","street":"Kornstr.","map":true,"plz":"02625","number":"alle","district":"Bautzen","city":"Bautzen"},{"cityaddition":"Sachs","street":"Kreckwitzer Str.","map":true,"plz":"02625","number":"alle","district":"Bautzen","city":"Bautzen"},{"cityaddition":"Sachs","street":"Kretschmerstr.","map":true,"plz":"02625","number":"alle","district":"Bautzen","city":"Bautzen"},{"cityaddition":"Sachs","street":"Kupferhammer","map":true,"plz":"02625","number":"alle","district":"Bautzen","city":"Bautzen"},{"cityaddition":"Sachs","street":"Kurt-Pchalek-Str.","map":true,"plz":"02625","number":"alle","district":"Bautzen","city":"Bautzen"},{"cityaddition":"Sachs","street":"Käthe-Kollwitz-Platz","map":true,"plz":"02625","number":"alle","district":"Bautzen","city":"Bautzen"},{"cityaddition":"Sachs","street":"Käthe-Kollwitz-Str.","map":true,"plz":"02625","number":"alle","district":"Bautzen","city":"Bautzen"},{"cityaddition":"Sachs","street":"Lauengraben","map":true,"plz":"02625","number":"alle","district":"Bautzen","city":"Bautzen"},{"cityaddition":"Sachs","street":"Leibnizstr.","map":true,"plz":"02625","number":"alle","district":"Bautzen","city":"Bautzen"},{"cityaddition":"Sachs","street":"Lessingstr.","map":true,"plz":"02625","number":"alle","district":"Bautzen","city":"Bautzen"},{"cityaddition":"Sachs","street":"Lilienthalstr.","map":true,"plz":"02625","number":"alle","district":"Bautzen","city":"Bautzen"},{"cityaddition":"Sachs","street":"Lindenstr.","map":true,"plz":"02625","number":"alle","district":"Auritz","city":"Bautzen"},{"cityaddition":"Sachs","street":"Liselotte-Herrmann-Str.","map":true,"plz":"02625","number":"alle","district":"Bautzen","city":"Bautzen"},{"cityaddition":"Sachs","street":"Lotzestr.","map":true,"plz":"02625","number":"alle","district":"Bautzen","city":"Bautzen"},{"cityaddition":"Sachs","street":"Lubachau","map":true,"plz":"02625","number":"alle","district":"Lubachau","city":"Bautzen"},{"cityaddition":"Sachs","street":"Löbauer Str.","map":true,"plz":"02625","number":"1 - 83c (ungerade)","district":"Bautzen","city":"Bautzen"},{"cityaddition":"Sachs","street":"Löbauer Str.","map":true,"plz":"02625","number":"2 - 70 (gerade)","district":"Bautzen","city":"Bautzen"},{"cityaddition":"Sachs","street":"Löbauer Str.","map":true,"plz":"02625","number":"103 - 999 (ungerade)","district":"Auritz","city":"Bautzen"},{"cityaddition":"Sachs","street":"Löbauer Str.","map":true,"plz":"02625","number":"120 - 998 (gerade)","district":"Auritz","city":"Bautzen"},{"cityaddition":"Sachs","street":"Löhrstr.","map":true,"plz":"02625","number":"alle","district":"Bautzen","city":"Bautzen"},{"cityaddition":"Sachs","street":"Löschau","map":true,"plz":"02625","number":"alle","district":"Löschau","city":"Bautzen"},{"cityaddition":"Sachs","street":"Lützowstr.","map":true,"plz":"02625","number":"alle","district":"Bautzen","city":"Bautzen"},{"cityaddition":"Sachs","street":"Malschwitzer Str.","map":true,"plz":"02625","number":"alle","district":"Bautzen","city":"Bautzen"},{"cityaddition":"Sachs","street":"Malsitzer Weg","map":true,"plz":"02625","number":"alle","district":"Burk","city":"Bautzen"},{"cityaddition":"Sachs","street":"Marschnerstr.","map":true,"plz":"02625","number":"alle","district":"Bautzen","city":"Bautzen"},{"cityaddition":"Sachs","street":"Martin-Hoop-Str.","map":true,"plz":"02625","number":"alle","district":"Bautzen","city":"Bautzen"},{"cityaddition":"Sachs","street":"Matthäus-Lange-Str.","map":true,"plz":"02625","number":"alle","district":"Kleinwelka","city":"Bautzen"},{"cityaddition":"Sachs","street":"Max-Militzer-Weg","map":true,"plz":"02625","number":"alle","district":"Oberkaina","city":"Bautzen"},{"cityaddition":"Sachs","street":"Max-Planck-Str.","map":true,"plz":"02625","number":"alle","district":"Bautzen","city":"Bautzen"},{"cityaddition":"Sachs","street":"Messergasse","map":true,"plz":"02625","number":"alle","district":"Bautzen","city":"Bautzen"},{"cityaddition":"Sachs","street":"Michael-Hornig-Str.","map":true,"plz":"02625","number":"alle","district":"Bautzen","city":"Bautzen"},{"cityaddition":"Sachs","street":"Milkwitzer Weg","map":true,"plz":"02625","number":"alle","district":"Kleinwelka","city":"Bautzen"},{"cityaddition":"Sachs","street":"Mozartstr.","map":true,"plz":"02625","number":"alle","district":"Bautzen","city":"Bautzen"},{"cityaddition":"Sachs","street":"Muskauer Str.","map":true,"plz":"02625","number":"alle","district":"Bautzen","city":"Bautzen"},{"cityaddition":"Sachs","street":"Mättigstr.","map":true,"plz":"02625","number":"alle","district":"Bautzen","city":"Bautzen"},{"cityaddition":"Sachs","street":"Mönchsgasse","map":true,"plz":"02625","number":"alle","district":"Bautzen","city":"Bautzen"},{"cityaddition":"Sachs","street":"Mönchskirche","map":true,"plz":"02625","number":"alle","district":"Bautzen","city":"Bautzen"},{"cityaddition":"Sachs","street":"Mühlgäßchen","map":true,"plz":"02625","number":"alle","district":"Bautzen","city":"Bautzen"},{"cityaddition":"Sachs","street":"Mühlstr.","map":true,"plz":"02625","number":"alle","district":"Bautzen","city":"Bautzen"},{"cityaddition":"Sachs","street":"Mühltorgasse","map":true,"plz":"02625","number":"alle","district":"Bautzen","city":"Bautzen"},{"cityaddition":"Sachs","street":"Mühlweg","map":true,"plz":"02625","number":"alle","district":"Niederkaina","city":"Bautzen"},{"cityaddition":"Sachs","street":"Nadelwitzer Str.","map":true,"plz":"02625","number":"alle","district":"Nadelwitz","city":"Bautzen"},{"cityaddition":"Sachs","street":"Neue Siedlung","map":true,"plz":"02625","number":"alle","district":"Stiebitz","city":"Bautzen"},{"cityaddition":"Sachs","street":"Neue Str.","map":true,"plz":"02625","number":"alle","district":"Kleinwelka","city":"Bautzen"},{"cityaddition":"Sachs","street":"Neugasse","map":true,"plz":"02625","number":"alle","district":"Bautzen","city":"Bautzen"},{"cityaddition":"Sachs","street":"Neukircher Str.","map":true,"plz":"02625","number":"alle","district":"Stiebitz","city":"Bautzen"},{"cityaddition":"Sachs","street":"Neumalsitz","map":true,"plz":"02625","number":"alle","district":"Teichnitz","city":"Bautzen"},{"cityaddition":"Sachs","street":"Neusalzaer Str.","map":true,"plz":"02625","number":"2 - 82 (gerade)","district":"Bautzen","city":"Bautzen"},{"cityaddition":"Sachs","street":"Neusalzaer Str.","map":true,"plz":"02625","number":"3 - 81 (ungerade)","district":"Bautzen","city":"Bautzen"},{"cityaddition":"Sachs","street":"Neusalzaer Str.","map":true,"plz":"02625","number":"86 - 998 (gerade)","district":"Oberkaina","city":"Bautzen"},{"cityaddition":"Sachs","street":"Neusalzaer Str.","map":true,"plz":"02625","number":"119 - 999 (ungerade)","district":"Oberkaina","city":"Bautzen"},{"cityaddition":"Sachs","street":"Neusche Promenade","map":true,"plz":"02625","number":"alle","district":"Bautzen","city":"Bautzen"},{"cityaddition":"Sachs","street":"Neustädter Str.","map":true,"plz":"02625","number":"2 - 84 (gerade)","district":"Bautzen","city":"Bautzen"},{"cityaddition":"Sachs","street":"Neustädter Str.","map":true,"plz":"02625","number":"3 - 55 (ungerade)","district":"Bautzen","city":"Bautzen"},{"cityaddition":"Sachs","street":"Neustädter Str.","map":true,"plz":"02625","number":"79 - 999 (ungerade)","district":"Stiebitz","city":"Bautzen"},{"cityaddition":"Sachs","street":"Neustädter Str.","map":true,"plz":"02625","number":"86 - 998 (gerade)","district":"Stiebitz","city":"Bautzen"},{"cityaddition":"Sachs","street":"Neuteichnitzer Str.","map":true,"plz":"02625","number":"alle","district":"Teichnitz","city":"Bautzen"},{"cityaddition":"Sachs","street":"Nicolaipforte","map":true,"plz":"02625","number":"alle","district":"Bautzen","city":"Bautzen"},{"cityaddition":"Sachs","street":"Nicolaistufen","map":true,"plz":"02625","number":"alle","district":"Bautzen","city":"Bautzen"},{"cityaddition":"Sachs","street":"Niederkainaer Str.","map":true,"plz":"02625","number":"1 - 19 (ungerade)","district":"Bautzen","city":"Bautzen"},{"cityaddition":"Sachs","street":"Niederkainaer Str.","map":true,"plz":"02625","number":"2 - 28 (gerade)","district":"Bautzen","city":"Bautzen"},{"cityaddition":"Sachs","street":"Niederkainaer Str.","map":true,"plz":"02625","number":"21 - 999 (ungerade)","district":"Niederkaina","city":"Bautzen"},{"cityaddition":"Sachs","street":"Niederkainaer Str.","map":true,"plz":"02625","number":"30 - 998 (gerade)","district":"Niederkaina","city":"Bautzen"},{"cityaddition":"Sachs","street":"Niederuhna","map":true,"plz":"02625","number":"alle","district":"Niederuhna","city":"Bautzen"},{"cityaddition":"Sachs","street":"Niemöllerstr.","map":true,"plz":"02625","number":"alle","district":"Bautzen","city":"Bautzen"},{"cityaddition":"Sachs","street":"Nikolaus-Otto-Str.","map":true,"plz":"02625","number":"alle","district":"Bolbritz","city":"Bautzen"},{"cityaddition":"Sachs","street":"Nimschützer Str.","map":true,"plz":"02625","number":"alle","district":"Burk","city":"Bautzen"},{"cityaddition":"Sachs","street":"Obere Str.","map":true,"plz":"02625","number":"alle","district":"Auritz","city":"Bautzen"},{"cityaddition":"Sachs","street":"Oberkainaer Str.","map":true,"plz":"02625","number":"alle","district":"Oberkaina","city":"Bautzen"},{"cityaddition":"Sachs","street":"Oberuhna","map":true,"plz":"02625","number":"alle","district":"Oberuhna","city":"Bautzen"},{"cityaddition":"Sachs","street":"Oberweg","map":true,"plz":"02625","number":"alle","district":"Bautzen","city":"Bautzen"},{"cityaddition":"Sachs","street":"Oehna","map":true,"plz":"02625","number":"alle","district":"Teichnitz","city":"Bautzen"},{"cityaddition":"Sachs","street":"Ortenburg","map":true,"plz":"02625","number":"alle","district":"Bautzen","city":"Bautzen"},{"cityaddition":"Sachs","street":"Otto-Nagel-Str.","map":true,"plz":"02625","number":"alle","district":"Bautzen","city":"Bautzen"},{"cityaddition":"Sachs","street":"Packhofstr.","map":true,"plz":"02625","number":"alle","district":"Bautzen","city":"Bautzen"},{"cityaddition":"Sachs","street":"Pappelweg","map":true,"plz":"02625","number":"alle","district":"Oberkaina","city":"Bautzen"},{"cityaddition":"Sachs","street":"Parsevalstr.","map":true,"plz":"02625","number":"alle","district":"Bautzen","city":"Bautzen"},{"cityaddition":"Sachs","street":"Paul-Neck-Str.","map":true,"plz":"02625","number":"alle","district":"Bautzen","city":"Bautzen"},{"cityaddition":"Sachs","street":"Paulistr.","map":true,"plz":"02625","number":"alle","district":"Bautzen","city":"Bautzen"},{"cityaddition":"Sachs","street":"Peter-Buck-Str.","map":true,"plz":"02625","number":"alle","district":"Kleinwelka","city":"Bautzen"},{"cityaddition":"Sachs","street":"Philipp-Reis-Str.","map":true,"plz":"02625","number":"alle","district":"Bloaschütz","city":"Bautzen"},{"cityaddition":"Sachs","street":"Platz der Völkerfreundschaft","map":true,"plz":"02625","number":"alle","district":"Bautzen","city":"Bautzen"},{"cityaddition":"Sachs","street":"Postplatz","map":true,"plz":"02625","number":"alle","district":"Bautzen","city":"Bautzen"},{"cityaddition":"Sachs","street":"Predigergasse","map":true,"plz":"02625","number":"alle","district":"Bautzen","city":"Bautzen"},{"cityaddition":"Sachs","street":"Preuschwitzer Str.","map":true,"plz":"02625","number":"alle","district":"Bautzen","city":"Bautzen"},{"cityaddition":"Sachs","street":"Privatweg","map":true,"plz":"02625","number":"alle","district":"Bautzen","city":"Bautzen"},{"cityaddition":"Sachs","street":"Protschenbergstufen","map":true,"plz":"02625","number":"alle","district":"Bautzen","city":"Bautzen"},{"cityaddition":"Sachs","street":"Purschwitzer Str.","map":true,"plz":"02625","number":"alle","district":"Niederkaina","city":"Bautzen"},{"cityaddition":"Sachs","street":"Rabitzer Str.","map":true,"plz":"02625","number":"alle","district":"Auritz","city":"Bautzen"},{"cityaddition":"Sachs","street":"Rathenauplatz","map":true,"plz":"02625","number":"alle","district":"Bautzen","city":"Bautzen"},{"cityaddition":"Sachs","street":"Rattwitzer Str.","map":true,"plz":"02625","number":"alle","district":"Stiebitz","city":"Bautzen"},{"cityaddition":"Sachs","street":"Reichenstr.","map":true,"plz":"02625","number":"alle","district":"Bautzen","city":"Bautzen"},{"cityaddition":"Sachs","street":"Renatusstr.","map":true,"plz":"02625","number":"alle","district":"Bautzen","city":"Bautzen"},{"cityaddition":"Sachs","street":"Ricarda-Huch-Str.","map":true,"plz":"02625","number":"alle","district":"Bautzen","city":"Bautzen"},{"cityaddition":"Sachs","street":"Richard-Wagner-Str.","map":true,"plz":"02625","number":"alle","district":"Bautzen","city":"Bautzen"},{"cityaddition":"Sachs","street":"Rietschelstr.","map":true,"plz":"02625","number":"alle","district":"Bautzen","city":"Bautzen"},{"cityaddition":"Sachs","street":"Rittergasse","map":true,"plz":"02625","number":"alle","district":"Bautzen","city":"Bautzen"},{"cityaddition":"Sachs","street":"Roesgerstr.","map":true,"plz":"02625","number":"alle","district":"Bautzen","city":"Bautzen"},{"cityaddition":"Sachs","street":"Rosenstr.","map":true,"plz":"02625","number":"alle","district":"Bautzen","city":"Bautzen"},{"cityaddition":"Sachs","street":"Röhrscheidtstr.","map":true,"plz":"02625","number":"alle","district":"Bautzen","city":"Bautzen"},{"cityaddition":"Sachs","street":"Salzenforster Str.","map":true,"plz":"02625","number":"1 - 83 (ungerade)","district":"Bautzen","city":"Bautzen"},{"cityaddition":"Sachs","street":"Salzenforster Str.","map":true,"plz":"02625","number":"2 - 50 (gerade)","district":"Bautzen","city":"Bautzen"},{"cityaddition":"Sachs","street":"Salzenforster Str.","map":true,"plz":"02625","number":"120 - 998 (gerade)","district":"Salzenforst","city":"Bautzen"},{"cityaddition":"Sachs","street":"Salzenforster Str.","map":true,"plz":"02625","number":"131 - 999 (ungerade)","district":"Salzenforst","city":"Bautzen"},{"cityaddition":"Sachs","street":"Sanddornweg","map":true,"plz":"02625","number":"alle","district":"Salzenforst","city":"Bautzen"},{"cityaddition":"Sachs","street":"Saurierpark","map":true,"plz":"02625","number":"alle","district":"Großwelka","city":"Bautzen"},{"cityaddition":"Sachs","street":"Schafbergstr.","map":true,"plz":"02625","number":"alle","district":"Nadelwitz","city":"Bautzen"},{"cityaddition":"Sachs","street":"Scharfenweg","map":true,"plz":"02625","number":"alle","district":"Bautzen","city":"Bautzen"},{"cityaddition":"Sachs","street":"Scharnhorststr.","map":true,"plz":"02625","number":"alle","district":"Bautzen","city":"Bautzen"},{"cityaddition":"Sachs","street":"Schenkendorfstr.","map":true,"plz":"02625","number":"alle","district":"Bautzen","city":"Bautzen"},{"cityaddition":"Sachs","street":"Schilleranlagen","map":true,"plz":"02625","number":"alle","district":"Bautzen","city":"Bautzen"},{"cityaddition":"Sachs","street":"Schillstr.","map":true,"plz":"02625","number":"alle","district":"Bautzen","city":"Bautzen"},{"cityaddition":"Sachs","street":"Schlachthofstr.","map":true,"plz":"02625","number":"alle","district":"Bautzen","city":"Bautzen"},{"cityaddition":"Sachs","street":"Schleierberg","map":true,"plz":"02625","number":"alle","district":"Bautzen","city":"Bautzen"},{"cityaddition":"Sachs","street":"Schliebenstr.","map":true,"plz":"02625","number":"alle","district":"Bautzen","city":"Bautzen"},{"cityaddition":"Sachs","street":"Schloßstr.","map":true,"plz":"02625","number":"alle","district":"Bautzen","city":"Bautzen"},{"cityaddition":"Sachs","street":"Schmiedegasse","map":true,"plz":"02625","number":"alle","district":"Kleinwelka","city":"Bautzen"},{"cityaddition":"Sachs","street":"Schmochtitz","map":true,"plz":"02625","number":"alle","district":"Schmochtitz","city":"Bautzen"},{"cityaddition":"Sachs","street":"Schmoler Weg","map":true,"plz":"02625","number":"alle","district":"Bautzen","city":"Bautzen"},{"cityaddition":"Sachs","street":"Schreberweg","map":true,"plz":"02625","number":"alle","district":"Bautzen","city":"Bautzen"},{"cityaddition":"Sachs","street":"Schubertstr.","map":true,"plz":"02625","number":"alle","district":"Bautzen","city":"Bautzen"},{"cityaddition":"Sachs","street":"Schulberg","map":true,"plz":"02625","number":"alle","district":"Großwelka","city":"Bautzen"},{"cityaddition":"Sachs","street":"Schulstr.","map":true,"plz":"02625","number":"alle","district":"Bautzen","city":"Bautzen"},{"cityaddition":"Sachs","street":"Schwalbenweg","map":true,"plz":"02625","number":"alle","district":"Salzenforst","city":"Bautzen"},{"cityaddition":"Sachs","street":"Schäfferstr.","map":true,"plz":"02625","number":"alle","district":"Bautzen","city":"Bautzen"},{"cityaddition":"Sachs","street":"Schülerstr.","map":true,"plz":"02625","number":"alle","district":"Bautzen","city":"Bautzen"},{"cityaddition":"Sachs","street":"Seidauer Str.","map":true,"plz":"02625","number":"alle","district":"Bautzen","city":"Bautzen"},{"cityaddition":"Sachs","street":"Seminarstr.","map":true,"plz":"02625","number":"alle","district":"Bautzen","city":"Bautzen"},{"cityaddition":"Sachs","street":"Siebergasse","map":true,"plz":"02625","number":"alle","district":"Bautzen","city":"Bautzen"},{"cityaddition":"Sachs","street":"Siedlerweg","map":true,"plz":"02625","number":"alle","district":"Oberkaina","city":"Bautzen"},{"cityaddition":"Sachs","street":"Siedlungsstr.","map":true,"plz":"02625","number":"alle","district":"Stiebitz","city":"Bautzen"},{"cityaddition":"Sachs","street":"Siemensstr.","map":true,"plz":"02625","number":"alle","district":"Bautzen","city":"Bautzen"},{"cityaddition":"Sachs","street":"Sonnenblick","map":true,"plz":"02625","number":"alle","district":"Bautzen","city":"Bautzen"},{"cityaddition":"Sachs","street":"Sonnenweg","map":true,"plz":"02625","number":"alle","district":"Salzenforst","city":"Bautzen"},{"cityaddition":"Sachs","street":"Spittelwiesenweg","map":true,"plz":"02625","number":"alle","district":"Bautzen","city":"Bautzen"},{"cityaddition":"Sachs","street":"Spreegasse","map":true,"plz":"02625","number":"alle","district":"Bautzen","city":"Bautzen"},{"cityaddition":"Sachs","street":"Stauseestr.","map":true,"plz":"02625","number":"alle","district":"Teichnitz","city":"Bautzen"},{"cityaddition":"Sachs","street":"Steinstr.","map":true,"plz":"02625","number":"alle","district":"Bautzen","city":"Bautzen"},{"cityaddition":"Sachs","street":"Stieberstr.","map":true,"plz":"02625","number":"alle","district":"Bautzen","city":"Bautzen"},{"cityaddition":"Sachs","street":"Stiebitzweg","map":true,"plz":"02625","number":"alle","district":"Bautzen","city":"Bautzen"},{"cityaddition":"Sachs","street":"Strandpromenade","map":true,"plz":"02625","number":"alle","district":"Burk","city":"Bautzen"},{"cityaddition":"Sachs","street":"Straße der Jugend","map":true,"plz":"02625","number":"alle","district":"Oberkaina","city":"Bautzen"},{"cityaddition":"Sachs","street":"Strehlaer Weg","map":true,"plz":"02625","number":"alle","district":"Auritz","city":"Bautzen"},{"cityaddition":"Sachs","street":"Talblick","map":true,"plz":"02625","number":"alle","district":"Oberkaina","city":"Bautzen"},{"cityaddition":"Sachs","street":"Talstr.","map":true,"plz":"02625","number":"alle","district":"Bautzen","city":"Bautzen"},{"cityaddition":"Sachs","street":"Taschenberg","map":true,"plz":"02625","number":"alle","district":"Bautzen","city":"Bautzen"},{"cityaddition":"Sachs","street":"Taucherstr.","map":true,"plz":"02625","number":"alle","district":"Bautzen","city":"Bautzen"},{"cityaddition":"Sachs","street":"Teichnitzer Str.","map":true,"plz":"02625","number":"alle","district":"Bautzen","city":"Bautzen"},{"cityaddition":"Sachs","street":"Teichstr.","map":true,"plz":"02625","number":"alle","district":"Oberkaina","city":"Bautzen"},{"cityaddition":"Sachs","street":"Temritz","map":true,"plz":"02625","number":"alle","district":"Temritz","city":"Bautzen"},{"cityaddition":"Sachs","street":"Temritzer Weg","map":true,"plz":"02625","number":"alle","district":"Bautzen","city":"Bautzen"},{"cityaddition":"Sachs","street":"Theatergasse","map":true,"plz":"02625","number":"alle","district":"Bautzen","city":"Bautzen"},{"cityaddition":"Sachs","street":"Theodor-Körner-Str.","map":true,"plz":"02625","number":"alle","district":"Bautzen","city":"Bautzen"},{"cityaddition":"Sachs","street":"Theodor-Schütze-Weg","map":true,"plz":"02625","number":"alle","district":"Oberkaina","city":"Bautzen"},{"cityaddition":"Sachs","street":"Thomas-Mann-Str.","map":true,"plz":"02625","number":"alle","district":"Bautzen","city":"Bautzen"},{"cityaddition":"Sachs","street":"Thomas-Müntzer-Str.","map":true,"plz":"02625","number":"alle","district":"Bautzen","city":"Bautzen"},{"cityaddition":"Sachs","street":"Thrombergstr.","map":true,"plz":"02625","number":"alle","district":"Bautzen","city":"Bautzen"},{"cityaddition":"Sachs","street":"Tuchmacherstr.","map":true,"plz":"02625","number":"alle","district":"Bautzen","city":"Bautzen"},{"cityaddition":"Sachs","street":"Tzschirnerstr.","map":true,"plz":"02625","number":"alle","district":"Bautzen","city":"Bautzen"},{"cityaddition":"Sachs","street":"Töpferstr.","map":true,"plz":"02625","number":"alle","district":"Bautzen","city":"Bautzen"},{"cityaddition":"Sachs","street":"Uferweg","map":true,"plz":"02625","number":"alle","district":"Bautzen","city":"Bautzen"},{"cityaddition":"Sachs","street":"Uhlandstr.","map":true,"plz":"02625","number":"alle","district":"Bautzen","city":"Bautzen"},{"cityaddition":"Sachs","street":"Untere Str.","map":true,"plz":"02625","number":"alle","district":"Auritz","city":"Bautzen"},{"cityaddition":"Sachs","street":"Unterm Schloß","map":true,"plz":"02625","number":"alle","district":"Bautzen","city":"Bautzen"},{"cityaddition":"Sachs","street":"Veilchenberg","map":true,"plz":"02625","number":"alle","district":"Bautzen","city":"Bautzen"},{"cityaddition":"Sachs","street":"Vor dem Gerbertor","map":true,"plz":"02625","number":"alle","district":"Bautzen","city":"Bautzen"},{"cityaddition":"Sachs","street":"Vor dem Schülertor","map":true,"plz":"02625","number":"alle","district":"Bautzen","city":"Bautzen"},{"cityaddition":"Sachs","street":"Vor der Fischerpforte","map":true,"plz":"02625","number":"alle","district":"Bautzen","city":"Bautzen"},{"cityaddition":"Sachs","street":"Wallstr.","map":true,"plz":"02625","number":"alle","district":"Bautzen","city":"Bautzen"},{"cityaddition":"Sachs","street":"Weigangstr.","map":true,"plz":"02625","number":"alle","district":"Bautzen","city":"Bautzen"},{"cityaddition":"Sachs","street":"Weißenberger Str.","map":true,"plz":"02625","number":"alle","district":"Nadelwitz","city":"Bautzen"},{"cityaddition":"Sachs","street":"Welkaer Str.","map":true,"plz":"02625","number":"alle","district":"Bautzen","city":"Bautzen"},{"cityaddition":"Sachs","street":"Wendische Str.","map":true,"plz":"02625","number":"alle","district":"Bautzen","city":"Bautzen"},{"cityaddition":"Sachs","street":"Wendischer Graben","map":true,"plz":"02625","number":"alle","district":"Bautzen","city":"Bautzen"},{"cityaddition":"Sachs","street":"Wendischer Kirchhof","map":true,"plz":"02625","number":"alle","district":"Bautzen","city":"Bautzen"},{"cityaddition":"Sachs","street":"Weststr.","map":true,"plz":"02625","number":"alle","district":"Bautzen","city":"Bautzen"},{"cityaddition":"Sachs","street":"Wetzelstr.","map":true,"plz":"02625","number":"alle","district":"Bautzen","city":"Bautzen"},{"cityaddition":"Sachs","street":"Wiesenweg","map":true,"plz":"02625","number":"alle","district":"Kleinwelka","city":"Bautzen"},{"cityaddition":"Sachs","street":"Wilhelm-Busch-Str.","map":true,"plz":"02625","number":"alle","district":"Bautzen","city":"Bautzen"},{"cityaddition":"Sachs","street":"Wilhelm-Fiebiger-Str.","map":true,"plz":"02625","number":"alle","district":"Bautzen","city":"Bautzen"},{"cityaddition":"Sachs","street":"Wilhelm-Ostwald-Str.","map":true,"plz":"02625","number":"alle","district":"Bautzen","city":"Bautzen"},{"cityaddition":"Sachs","street":"Wilhelm-von-Polenz-Str.","map":true,"plz":"02625","number":"alle","district":"Bautzen","city":"Bautzen"},{"cityaddition":"Sachs","street":"Wilthener Str.","map":true,"plz":"02625","number":"alle","district":"Bautzen","city":"Bautzen"},{"cityaddition":"Sachs","street":"Windmühlenweg","map":true,"plz":"02625","number":"alle","district":"Großwelka","city":"Bautzen"},{"cityaddition":"Sachs","street":"Yorckstr.","map":true,"plz":"02625","number":"alle","district":"Bautzen","city":"Bautzen"},{"cityaddition":"Sachs","street":"Zeppelinstr.","map":true,"plz":"02625","number":"alle","district":"Bautzen","city":"Bautzen"},{"cityaddition":"Sachs","street":"Ziegelstr.","map":true,"plz":"02625","number":"alle","district":"Bautzen","city":"Bautzen"},{"cityaddition":"Sachs","street":"Zieschützer Str.","map":true,"plz":"02625","number":"alle","district":"Niederkaina","city":"Bautzen"},{"cityaddition":"Sachs","street":"Zinzendorfplatz","map":true,"plz":"02625","number":"alle","district":"Kleinwelka","city":"Bautzen"},{"cityaddition":"Sachs","street":"Zinzendorfstr.","map":true,"plz":"02625","number":"alle","district":"Kleinwelka","city":"Bautzen"},{"cityaddition":"Sachs","street":"Zur Aue","map":true,"plz":"02625","number":"alle","district":"Bautzen","city":"Bautzen"},{"cityaddition":"Sachs","street":"Zur Bleiche","map":true,"plz":"02625","number":"alle","district":"Großwelka","city":"Bautzen"},{"cityaddition":"Sachs","street":"Zur Feldscheune","map":true,"plz":"02625","number":"alle","district":"Niederkaina","city":"Bautzen"},{"cityaddition":"Sachs","street":"Zur Gartensiedlung","map":true,"plz":"02625","number":"alle","district":"Bautzen","city":"Bautzen"},{"cityaddition":"Sachs","street":"Äußere Lauenstr.","map":true,"plz":"02625","number":"alle","district":"Bautzen","city":"Bautzen"}],"city":"Bautzen","district":null,"switchTo":"","success":true}